NORAD_CAT_ID,OBJECT_NAME,OBJECT_TYPE,EPOCH,MEAN_MOTION,ECCENTRICITY,INCLINATION,RA_OF_ASC_NODE,ARG_OF_PERICENTER,MEAN_ANOMALY,BSTAR,MEAN_MOTION_DOT,MEAN_MOTION_DDOT,TLE_LINE0,TLE_LINE1,TLE_LINE2,SEMIMAJOR_AXIS,PERIOD,APOGEE,PERIGEE,DECAYED
51758.0,STARLINK-3458,PAYLOAD,2024-02-27 22:57:27,15.0884026,0.0001544,53.2194,34.3498,108.2712,251.8448,-4.5362e-05,-1.01e-05,0.0,0 STARLINK-3458,1 51758U 22016AW  24058.95656419 -.00001010  00000-0 -45362-4 0  9999,2 51758  53.2194  34.3498 0001544 108.2712 251.8448 15.08840260113021,6917.88,95.438,540.813,538.676,0.0
51758.0,STARLINK-3458,PAYLOAD,2024-02-28 03:43:36,15.08845144,0.000149,53.2195,33.4591,96.6595,263.4567,6.3107e-07,-2.78e-06,0.0,0 STARLINK-3458,1 51758U 22016AW  24059.15528024 -.00000278  00000-0  63107-6 0  9995,2 51758  53.2195  33.4591 0001490  96.6595 263.4567 15.08845144113055,6917.865,95.437,540.76,538.699,0.0
51758.0,STARLINK-3458,PAYLOAD,2024-02-28 05:18:59,15.0884739,0.0001571,53.2198,33.1639,102.9252,257.1916,3.1664e-05,2.16e-06,0.0,0 STARLINK-3458,1 51758U 22016AW  24059.22151770  .00000216  00000-0  31664-4 0  9995,2 51758  53.2198  33.1639 0001571 102.9252 257.1916 15.08847390113063,6917.858,95.437,540.81,538.636,0.0
51758.0,STARLINK-3458,PAYLOAD,2024-02-28 14:51:18,15.08837729,0.0001442,53.2193,31.378,107.7674,252.3475,7.5644e-05,9.16e-06,0.0,0 STARLINK-3458,1 51758U 22016AW  24059.61896178  .00000916  00000-0  75644-4 0  9999,2 51758  53.2193  31.3780 0001442 107.7674 252.3475 15.08837729113122,6917.887,95.438,540.75,538.755,0.0
51758.0,STARLINK-3458,PAYLOAD,2024-02-29 05:09:47,15.08831292,0.0001632,53.2201,28.7054,105.7682,254.349,7.8573e-05,9.62e-06,0.0,0 STARLINK-3458,1 51758U 22016AW  24060.21512947  .00000962  00000-0  78573-4 0  9991,2 51758  53.2201  28.7054 0001632 105.7682 254.3490 15.08831292113212,6917.907,95.438,540.901,538.643,0.0
51758.0,STARLINK-3458,PAYLOAD,2024-02-29 14:42:06,15.08834095,0.0001725,53.2201,26.9207,115.9737,244.1433,3.6203e-05,2.88e-06,0.0,0 STARLINK-3458,1 51758U 22016AW  24060.61256962  .00000288  00000-0  36203-4 0  9992,2 51758  53.2201  26.9207 0001725 115.9737 244.1433 15.08834095113273,6917.898,95.438,540.957,538.57,0.0
51758.0,STARLINK-3458,PAYLOAD,2024-03-01 06:35:56,15.08845944,0.0001296,53.2187,23.9441,91.5451,268.569,6.2518e-05,7.07e-06,0.0,0 STARLINK-3458,1 51758U 22016AW  24061.27496327  .00000707  00000-0  62518-4 0  9990,2 51758  53.2187  23.9441 0001296  91.5451 268.5690 15.08845944113379,6917.862,95.437,540.624,538.831,0.0
51758.0,STARLINK-3458,PAYLOAD,2024-03-01 14:32:52,15.08841042,0.0001362,53.2195,22.4562,86.7841,273.3307,4.4235e-05,4.16e-06,0.0,0 STARLINK-3458,1 51758U 22016AW  24061.60616644  .00000416  00000-0  44235-4 0  9996,2 51758  53.2195  22.4562 0001362  86.7841 273.3307 15.08841042113429,6917.877,95.437,540.684,538.8,0.0
51758.0,STARLINK-3458,PAYLOAD,2024-03-02 04:51:20,15.08848493,0.0001462,53.2203,19.7791,80.1527,279.963,0.00013763,1.904e-05,0.0,0 STARLINK-3458,1 51758U 22016AW  24062.20232024  .00001904  00000-0  13763-3 0  9993,2 51758  53.2203  19.7791 0001462  80.1527 279.9630 15.08848493113510,6917.854,95.437,540.731,538.708,0.0
51758.0,STARLINK-3458,PAYLOAD,2024-03-03 03:06:45,15.08840123,0.0001476,53.2209,15.6175,93.2308,266.8853,3.5226e-05,2.73e-06,0.0,0 STARLINK-3458,1 51758U 22016AW  24063.12968763  .00000273  00000-0  35226-4 0  9998,2 51758  53.2209  15.6175 0001476  93.2308 266.8853 15.08840123113653,6917.88,95.438,540.766,538.724,0.0
51758.0,STARLINK-3458,PAYLOAD,2024-03-03 20:35:59,15.08850892,0.0001805,53.2211,12.3485,86.763,273.3569,-6.781e-05,-1.368e-05,0.0,0 STARLINK-3458,1 51758U 22016AW  24063.85832408 -.00001368  00000-0 -67810-4 0  9996,2 51758  53.2211  12.3485 0001805  86.7630 273.3569 15.08850892113768,6917.847,95.437,540.961,538.463,0.0
51758.0,STARLINK-3458,PAYLOAD,2024-03-04 02:57:31,15.08856723,0.0001664,53.2198,11.1623,83.4138,276.7044,7.2062e-05,8.59e-06,0.0,0 STARLINK-3458,1 51758U 22016AW  24064.12327604  .00000859  00000-0  72062-4 0  9991,2 51758  53.2198  11.1623 0001664  83.4138 276.7044 15.08856723113802,6917.829,95.436,540.845,538.543,0.0
51758.0,STARLINK-3458,PAYLOAD,2024-03-05 01:12:55,15.08838847,0.0001304,53.2192,6.9976,98.6861,261.4279,4.6519e-05,4.53e-06,0.0,0 STARLINK-3458,1 51758U 22016AW  24065.05064568  .00000453  00000-0  46519-4 0  9999,2 51758  53.2192   6.9976 0001304  98.6861 261.4279 15.08838847113944,6917.884,95.438,540.651,538.847,0.0
51758.0,STARLINK-3458,PAYLOAD,2024-03-05 05:59:04,15.08841253,0.0001697,53.2198,6.1006,118.8316,241.2847,6.6238e-05,7.66e-06,0.0,0 STARLINK-3458,1 51758U 22016AW  24065.24936226  .00000766  00000-0  66238-4 0  9996,2 51758  53.2198   6.1006 0001697 118.8316 241.2847 15.08841253113976,6917.877,95.437,540.916,538.568,0.0
51758.0,STARLINK-3458,PAYLOAD,2024-03-06 02:39:06,15.08844807,0.0001271,53.2192,2.2334,103.2753,256.8381,-6.0034e-05,-1.243e-05,0.0,0 STARLINK-3458,1 51758U 22016AW  24066.11048619 -.00001243  00000-0 -60034-4 0  9994,2 51758  53.2192   2.2334 0001271 103.2753 256.8381 15.08844807114101,6917.866,95.437,540.61,538.851,0.0
51758.0,STARLINK-3458,PAYLOAD,2024-03-07 12:02:11,15.0884431,8.3e-05,53.2179,355.9912,80.733,279.3756,9.1345e-05,1.167e-05,0.0,0 STARLINK-3458,1 51758U 22016AW  24067.50152607  .00001167  00000-0  91345-4 0  9993,2 51758  53.2179 355.9912 0000830  80.7330 279.3756 15.08844310114314,6917.867,95.437,540.306,539.158,0.0
51758.0,STARLINK-3458,PAYLOAD,2024-03-08 02:20:40,15.08839638,0.0001248,53.2195,353.3166,100.4437,259.6696,0.00011207,1.496e-05,0.0,0 STARLINK-3458,1 51758U 22016AW  24068.09769269  .00001496  00000-0  11207-3 0  9999,2 51758  53.2195 353.3166 0001248 100.4437 259.6696 15.08839638114408,6917.881,95.438,540.61,538.883,0.0
51758.0,STARLINK-3458,PAYLOAD,2024-03-08 11:52:59,15.08838412,0.0001314,53.2197,351.5309,85.9526,274.1616,9.4823e-05,1.221e-05,0.0,0 STARLINK-3458,1 51758U 22016AW  24068.49513534  .00001221  00000-0  94823-4 0  9997,2 51758  53.2197 351.5309 0001314  85.9526 274.1616 15.08838412114468,6917.885,95.438,540.659,538.841,0.0
51758.0,STARLINK-3458,PAYLOAD,2024-03-09 03:46:50,15.08847866,9.77e-05,53.2181,348.5578,89.6988,270.4117,6.4848e-05,7.45e-06,0.0,0 STARLINK-3458,1 51758U 22016AW  24069.15753101  .00000745  00000-0  64848-4 0  9991,2 51758  53.2181 348.5578 0000977  89.6988 270.4117 15.08847866114561,6917.856,95.437,540.397,539.045,0.0
51758.0,STARLINK-3458,PAYLOAD,2024-03-09 11:43:46,15.08844716,9.87e-05,53.2182,347.0704,91.617,268.4935,5.2476e-05,5.48e-06,0.0,0 STARLINK-3458,1 51758U 22016AW  24069.48873267  .00000548  00000-0  52476-4 0  9998,2 51758  53.2182 347.0704 0000987  91.6170 268.4935 15.08844716114616,6917.866,95.437,540.414,539.048,0.0
51758.0,STARLINK-3458,PAYLOAD,2024-03-09 18:05:18,15.08845188,0.0001267,53.2189,345.8803,89.675,270.4388,7.9604e-05,9.79e-06,0.0,0 STARLINK-3458,1 51758U 22016AW  24069.75369191  .00000979  00000-0  79604-4 0  9994,2 51758  53.2189 345.8803 0001267  89.6750 270.4388 15.08845188114655,6917.865,95.437,540.606,538.853,0.0
51758.0,STARLINK-3458,PAYLOAD,2024-03-10 11:34:33,15.08842607,0.0001199,53.2197,342.6087,91.9706,268.1423,3.3392e-05,2.44e-06,0.0,0 STARLINK-3458,1 51758U 22016AW  24070.48233243  .00000244  00000-0  33392-4 0  9993,2 51758  53.2197 342.6087 0001199  91.9706 268.1423 15.08842607114763,6917.872,95.437,540.567,538.908,0.0
51758.0,STARLINK-3458,PAYLOAD,2024-03-10 22:42:15,15.08837491,0.0001553,53.2205,340.526,90.7667,269.3503,9.2118e-05,1.178e-05,0.0,0 STARLINK-3458,1 51758U 22016AW  24070.94601550  .00001178  00000-0  92118-4 0  9992,2 51758  53.2205 340.5260 0001553  90.7667 269.3503 15.08837491114835,6917.888,95.438,540.827,538.679,0.0
51758.0,STARLINK-3458,PAYLOAD,2024-03-11 03:28:24,15.08843069,0.0001373,53.2196,339.6341,99.9397,260.175,2.6741e-05,1.38e-06,0.0,0 STARLINK-3458,1 51758U 22016AW  24071.14473362  .00000138  00000-0  26741-4 0  9997,2 51758  53.2196 339.6341 0001373  99.9397 260.1750 15.08843069114868,6917.871,95.437,540.686,538.786,0.0
51758.0,STARLINK-3458,PAYLOAD,2024-03-12 00:08:25,15.08843576,0.0001431,53.2203,335.7684,107.5462,252.5687,-1.6225e-05,-5.46e-06,0.0,0 STARLINK-3458,1 51758U 22016AW  24072.00585251 -.00000546  00000-0 -16225-4 0  9995,2 51758  53.2203 335.7684 0001431 107.5462 252.5687 15.08843576114999,6917.869,95.437,540.724,538.745,0.0
51758.0,STARLINK-3458,PAYLOAD,2024-03-13 03:09:59,15.08840997,0.0001396,53.2177,330.7161,80.6955,279.4195,4.8971e-05,4.92e-06,0.0,0 STARLINK-3458,1 51758U 22016AW  24073.13193442  .00000492  00000-0  48971-4 0  9998,2 51758  53.2177 330.7161 0001396  80.6955 279.4195 15.08840997115168,6917.877,95.437,540.708,538.777,0.0
51758.0,STARLINK-3458,PAYLOAD,2024-03-13 22:14:37,15.08813948,0.0001511,53.2188,327.1468,81.6538,278.4625,0.00037511,5.683e-05,0.0,0 STARLINK-3458,1 51758U 22016AW  24073.92681990  .00005683  00000-0  37511-3 0  9999,2 51758  53.2188 327.1468 0001511  81.6538 278.4625 15.08813948115283,6917.96,95.439,540.87,538.78,0.0
51758.0,STARLINK-3458,PAYLOAD,2024-03-14 20:30:01,15.08837557,0.0001317,53.2178,322.9832,80.3391,279.775,3.4855e-05,2.67e-06,0.0,0 STARLINK-3458,1 51758U 22016AW  24074.85417986  .00000267  00000-0  34855-4 0  9996,2 51758  53.2178 322.9832 0001317  80.3391 279.7750 15.08837557115428,6917.888,95.438,540.664,538.842,0.0
51758.0,STARLINK-3458,PAYLOAD,2024-03-14 22:05:24,15.08838228,0.0001404,53.2184,322.6864,77.2112,282.9037,3.1005e-05,2.06e-06,0.0,0 STARLINK-3458,1 51758U 22016AW  24074.92041992  .00000206  00000-0  31005-4 0  9991,2 51758  53.2184 322.6864 0001404  77.2112 282.9037 15.08838228115431,6917.886,95.438,540.722,538.78,0.0
51758.0,STARLINK-3458,PAYLOAD,2024-03-15 21:56:11,15.08825924,0.00016,53.2197,318.228,84.112,276.0054,0.00014396,2.003e-05,0.0,0 STARLINK-3458,1 51758U 22016AW  24075.91402550  .00002003  00000-0  14396-3 0  9992,2 51758  53.2197 318.2280 0001600  84.1120 276.0054 15.08825924115580,6917.923,95.438,540.895,538.682,0.0
